JCSAT-17                
1 45245U 20013A   22042.18822043 -.00000303  00000+0  00000+0 0  9999
2 45245   6.2756 344.8493 0004303 340.3135  19.7855  1.00270648  7327
GEO-KOMPSAT-2B          
1 45246U 20013B   22042.84024362 -.00000340  00000+0  00000+0 0  9992
2 45246   0.0518 271.5334 0002244  19.8401 281.2185  1.00272195  7378
XJS C                   
1 45249U 20014A   22042.78271018  .00015896  00000+0  49574-3 0  9995
2 45249  35.0131 169.6428 0008287   7.5464 352.5378 15.32339366110765
XJS D                   
1 45250U 20014B   22042.98200411  .00014955  00000+0  46840-3 0  9996
2 45250  35.0138 168.4618 0007770 355.7489   4.3162 15.32214672110791
XJS E                   
1 45251U 20014C   22042.78205462  .00013203  00000+0  41327-3 0  9996
2 45251  35.0144 169.6773 0004999  47.6620 312.4521 15.32271206110729
XJS F                   
1 45253U 20014E   22042.98129241  .00011707  00000+0  36733-3 0  9992
2 45253  35.0132 168.4129 0006632   5.1009 354.9776 15.32206162110751
MERIDIAN 9              
1 45254U 20015A   22041.32532478  .00000263  00000+0  00000+0 0  9990
2 45254  63.0883 138.6486 6895385 294.2398  13.6345  2.00601110 14465
HARP                    
1 45256U 98067QZ  22043.22622885  .00141175  00000+0  80500-3 0  9992
2 45256  51.6378 190.6379 0001604  39.4093 320.7025 15.77975181112833
1998-067RA              
1 45257U 98067RA  22043.53774333  .00093707  00000+0  68749-3 0  9991
2 45257  51.6309 194.8044 0002518  86.2997 273.8289 15.72364379112804
PHOENIX                 
1 45258U 98067RB  22042.92802612  .00071737  00000+0  64366-3 0  9996
2 45258  51.6336 203.5194 0002969  64.4123 295.7180 15.67621948112601
RADSAT-U                
1 45262U 98067RF  22043.12619085  .00115632  00000+0  79682-3 0  9994
2 45262  51.6383 195.2292 0001682 150.9301 209.1791 15.73744114112777
QARMAN                  
1 45263U 98067RG  22036.53229310  .15337201  12572-4  33864-3 0  9998
2 45263  51.6115 206.9643 0005832 268.7113  91.3248 16.46296888112040
SORTIE                  
1 45264U 98067RH  22042.88044709  .00042119  00000+0  46768-3 0  9991
2 45264  51.6377 211.5696 0005310  91.1342 269.0260 15.62471602112521
BEIDOU-3 G2             
1 45344U 20017A   22042.85732389 -.00000133  00000+0  00000+0 0  9991
2 45344   2.1624 346.0645 0001491  46.5800 137.8992  1.00272269  7356
COSMOS 2545 [GLONASS-M] 
1 45358U 20018A   22041.50909779 -.00000068  00000+0  00000+0 0  9994
2 45358  64.9224   7.6962 0010803 258.2261 301.9186  2.13102650 14825
STARLINK-1279           
1 45360U 20019A   22042.90483536  .00000418  00000+0  46926-4 0  9991
2 45360  53.0561 331.0554 0001739  65.6291 294.4879 15.06414202106049
STARLINK-1301           
1 45361U 20019B   22043.09188390  .00002241  00000+0  16919-3 0  9997
2 45361  53.0562 340.2155 0001686  85.3680 274.7501 15.06421112105941
STARLINK-1306           
1 45362U 20019C   22042.87258070  .00005331  00000+0  37630-3 0  9992
2 45362  53.0554   1.1976 0001574  64.9566 295.1586 15.06418172105626
STARLINK-1313           
1 45364U 20019E   22043.16653571  .00003349  00000+0  24349-3 0  9992
2 45364  53.0552 329.8856 0001604  64.4443 295.6711 15.06416860106084
STARLINK-1317           
1 45365U 20019F   22042.24363643  .00007576  00000+0  53815-3 0  9995
2 45365  53.0001 344.0397 0001695  68.4195 291.6974 15.05608725105775
STARLINK-1262           
1 45366U 20019G   22042.59246516 -.00002901  00000+0 -17597-3 0  9999
2 45366  53.0552   2.4484 0001616  64.0867 296.0288 15.06392184105597
STARLINK-1273           
1 45367U 20019H   22042.61456666  .00006605  00000+0  46156-3 0  9998
2 45367  53.0560   2.3711 0001654  70.5011 289.6156 15.06429813105596
STARLINK-1276           
1 45368U 20019J   22042.85046111  .00005800  00000+0  40769-3 0  9995
2 45368  53.0544   1.2906 0001342  93.6640 266.4503 15.06426407105631
STARLINK-1277           
1 45369U 20019K   22043.18123259  .00016450  00000+0  11191-2 0  9991
2 45369  53.0557 359.8236 0001668  68.5978 291.5189 15.06452381105684
STARLINK-1281           
1 45370U 20019L   22043.17114140  .00001165  00000+0  97075-4 0  9995
2 45370  53.0585 359.8556 0001599  76.4044 283.7123 15.06411549105656
STARLINK-1287           
1 45371U 20019M   22042.86889761  .00003854  00000+0  27728-3 0  9993
2 45371  53.0561   1.2120 0001628  74.2791 285.8377 15.06426200105636
STARLINK-1288           
1 45372U 20019N   22043.14902340  .00006272  00000+0  43930-3 0  9995
2 45372  53.0555 359.9683 0001573  69.7558 290.3600 15.06424098105673
STARLINK-1295           
1 45373U 20019P   22043.19693583  .00006964  00000+0  48545-3 0  9992
2 45373  53.0542 359.7413 0001543  81.9280 278.1884 15.06437948105681
STARLINK-1300           
1 45374U 20019Q   22043.19326563 -.00000343  00000+0 -41692-5 0  9999
2 45374  53.0551 359.7609 0001242  91.0067 269.1065 15.06398440105684
STARLINK-1302           
1 45375U 20019R   22042.61088903  .00004145  00000+0  29683-3 0  9995
2 45375  53.0566   2.3870 0001462  71.0643 289.0504 15.06417885105598
STARLINK-1304           
1 45376U 20019S   22042.36392931  .00005355  00000+0  37793-3 0  9992
2 45376  53.0556   3.4918 0001709  69.0590 291.0581 15.06421328105556
STARLINK-1305           
1 45377U 20019T   22042.58876759  .00004576  00000+0  32579-3 0  9993
2 45377  53.0545   2.4697 0001658  59.6082 300.5071 15.06414689105598
STARLINK-1310           
1 45378U 20019U   22043.24117140  .00009718  00000+0  66998-3 0  9995
2 45378  53.0557 359.5566 0001541  76.3960 283.7201 15.06424611105699
STARLINK-1319           
1 45379U 20019V   22043.17851306  .00001596  00000+0  12593-3 0  9995
2 45379  53.0547 359.8259 0001406  66.9844 293.1294 15.06421955105681
STARLINK-1207           
1 45380U 20019W   22042.91127910  .00006764  00000+0  47221-3 0  9993
2 45380  53.0539 341.0236 0001584  62.8329 297.2821 15.06428202105911
STARLINK-1258           
1 45381U 20019X   22043.18773295  .00001113  00000+0  93592-4 0  9993
2 45381  53.0552 339.7764 0001422  82.2111 277.9040 15.06407655105954
STARLINK-1264           
1 45382U 20019Y   22043.16561033  .00003438  00000+0  24949-3 0  9998
2 45382  53.0557 339.8965 0001446  82.3157 277.7996 15.06419016105773
STARLINK-1266           
1 45383U 20019Z   22042.84862011  .00005107  00000+0  36131-3 0  9994
2 45383  53.0561 341.3033 0001407  74.9521 285.1624 15.06418198105908
STARLINK-1267           
1 45384U 20019AA  22043.16930126  .00002258  00000+0  17034-3 0  9999
2 45384  53.0562 339.8667 0001664  72.5157 287.6014 15.06417422105964
STARLINK-1272           
1 45386U 20019AC  22043.10663054  .00001313  00000+0  10697-3 0  9997
2 45386  53.0555 340.1574 0001599  74.0991 286.0174 15.06420944105952
STARLINK-1274           
1 45387U 20019AD  22042.86336605  .00005060  00000+0  35817-3 0  9993
2 45387  53.0548 341.2422 0001360  77.2163 282.8978 15.06418672105907
STARLINK-1280           
1 45388U 20019AE  22042.89838773  .00003010  00000+0  22077-3 0  9997
2 45388  53.0550   1.0792 0001546  75.1370 284.9791 15.06418196105621
STARLINK-1283           
1 45389U 20019AF  22042.87810858  .00014980  00000+0  10214-2 0  9997
2 45389  53.0559 341.1669 0001729  62.1909 297.9255 15.06436613105914
STARLINK-1284           
1 45390U 20019AG  22042.85232199  .00000293  00000+0  38567-4 0  9998
2 45390  53.0531 341.3041 0002118  60.9942 299.1259 15.06401655105903
STARLINK-1289           
1 45391U 20019AH  22043.13245830  .00011813  00000+0  80978-3 0  9999
2 45391  53.0550 340.0377 0001530  85.7685 274.3479 15.06437387105673
STARLINK-1290           
1 45392U 20019AJ  22042.54079643  .00022000  00000+0  13693-2 0  9990
2 45392  52.9947 337.0924 0001460  54.9324 305.1803 15.09545521105628
STARLINK-1291           
1 45393U 20019AK  22043.16192472  .00004193  00000+0  30008-3 0  9999
2 45393  53.0551 339.9006 0001536  67.1387 292.9764 15.06416464105712
STARLINK-1292           
1 45394U 20019AL  22042.79333140  .00004443  00000+0  31676-3 0  9997
2 45394  53.0553 341.5609 0001368  83.7925 276.3220 15.06422719105632
STARLINK-1297           
1 45395U 20019AM  22043.22089662  .00006245  00000+0  43745-3 0  9996
2 45395  53.0555 339.6469 0001491  80.3406 279.7751 15.06427681105720
STARLINK-1303           
1 45396U 20019AN  22042.87073681  .00005721  00000+0  40247-3 0  9993
2 45396  53.0548 341.2050 0001453  78.6284 281.4868 15.06419216105623
STARLINK-1307           
1 45397U 20019AP  22043.21352342  .00008360  00000+0  57895-3 0  9996
2 45397  53.0539 339.6643 0001519  78.1122 282.0038 15.06430975105780
STARLINK-1312           
1 45398U 20019AQ  22043.20615310  .00004104  00000+0  29409-3 0  9995
2 45398  53.0535 339.6947 0001311  73.6184 286.4949 15.06421105105719
STARLINK-1255           
1 45399U 20019AR  22043.11493258  .00015321  00000+0  10443-2 0  9991
2 45399  53.0541 330.1070 0001792  59.6642 300.4524 15.06431943105892
STARLINK-1213           
1 45400U 20019AS  22042.53255929  .00001305  00000+0  10649-3 0  9996
2 45400  53.0568 332.7400 0001808  62.2585 297.8588 15.06411165105739
STARLINK-1256           
1 45401U 20019AT  22043.19234063  .00006716  00000+0  46902-3 0  9998
2 45401  53.0547 329.7686 0001791  63.1070 297.0101 15.06425663105909
STARLINK-1257           
1 45402U 20019AU  22043.18864860  .00005687  00000+0  40013-3 0  9995
2 45402  53.0548 329.7766 0001688  76.4849 283.6328 15.06421321105905
STARLINK-1259           
1 45403U 20019AV  22043.07069090  .00006543  00000+0  45740-3 0  9990
2 45403  53.0554 330.3229 0001749  54.9721 305.1432 15.06430642105882
STARLINK-1260           
1 45404U 20019AW  22043.14811571 -.00000306  00000+0 -16471-5 0  9992
2 45404  53.0552 329.9524 0001752  60.1484 299.9679 15.06413747105804
STARLINK-1263           
1 45405U 20019AX  22043.19972073  .00002409  00000+0  18053-3 0  9993
2 45405  53.0542 329.7292 0001549  74.9912 285.1249 15.06404209105811
